{"type": "FeatureCollection", "features": [ {"type": "Feature", "properties": {"norad_id": 58662, "name": "TIANMU-1 21", "group": "weather", "lat": 36.15854764133408, "lon": -66.7010603084294, "alt_km": 467.92211372715883, "timestamp": "2025-12-20T09:36:01.274510+00:00", "meta": {"OBJECT_NAME": "TIANMU-1 21", "OBJECT_ID": "2023-208C", "EPOCH": "2025-12-19T22:00:01.995264", "MEAN_MOTION": 15.31695559, "ECCENTRICITY": 0.00061723, "INCLINATION": 97.438, "RA_OF_ASC_NODE": 107.3354, "ARG_OF_PERICENTER": 229.9387, "MEAN_ANOMALY": 130.1314, "EPHEMERIS_TYPE": 0, "CLASSIFICATION_TYPE": "U", "NORAD_CAT_ID": 58662, "ELEMENT_SET_NO": 999, "REV_AT_EPOCH": 11009, "BSTAR": 0.00024955608, "MEAN_MOTION_DOT": 7.563e-05, "MEAN_MOTION_DDOT": 0}, "tle": {"line1": "1 58662U 23208C   25353.91668976  .00007563  00000+0  24956-3 0  9991", "line2": "2 58662  97.4380 107.3354 0006172 229.9387 130.1314 15.31695559110092"}}, "geometry": {"type": "Point", "coordinates": [-66.7010603084294, 36.15854764133408]}}, {"type": "Feature", "properties": {"norad_id": 58663, "name": "TIANMU-1 22", "group": "weather", "lat": -43.03695717960499, "lon": 112.48568529174032, "alt_km": 488.6661596618069, "timestamp": "2025-12-20T09:36:01.274520+00:00", "meta": {"OBJECT_NAME": "TIANMU-1 22", "OBJECT_ID": "2023-208D", "EPOCH": "2025-12-19T21:12:52.451424", "MEAN_MOTION": 15.27717875, "ECCENTRICITY": 0.00027344, "INCLINATION": 97.4389, "RA_OF_ASC_NODE": 104.9633, "ARG_OF_PERICENTER": 249.1883, "MEAN_ANOMALY": 110.9063, "EPHEMERIS_TYPE": 0, "CLASSIFICATION_TYPE": "U", "NORAD_CAT_ID": 58663, "ELEMENT_SET_NO": 999, "REV_AT_EPOCH": 10992, "BSTAR": 0.00022744321, "MEAN_MOTION_DOT": 6.085e-05, "MEAN_MOTION_DDOT": 0}, "tle": {"line1": "1 58663U 23208D   25353.88394041  .00006085  00000+0  22744-3 0  9998", "line2": "2 58663  97.4389 104.9633 0002734 249.1883 110.9063 15.27717875109928"}}, "geometry": {"type": "Point", "coordinates": [112.48568529174032, -43.03695717960499]}}, {"type": "Feature", "properties": {"norad_id": 58700, "name": "TIANMU-1 15", "group": "weather", "lat": -2.175926278869659, "lon": 176.1257926746327, "alt_km": 496.36268521387683, "timestamp": "2025-12-20T09:36:01.274530+00:00", "meta": {"OBJECT_NAME": "TIANMU-1 15", "OBJECT_ID": "2024-004A", "EPOCH": "2025-12-19T22:34:58.332288", "MEAN_MOTION": 15.24495558, "ECCENTRICITY": 0.0005943, "INCLINATION": 97.4621, "RA_OF_ASC_NODE": 175.3833, "ARG_OF_PERICENTER": 259.6208, "MEAN_ANOMALY": 100.436, "EPHEMERIS_TYPE": 0, "CLASSIFICATION_TYPE": "U", "NORAD_CAT_ID": 58700, "ELEMENT_SET_NO": 999, "REV_AT_EPOCH": 10844, "BSTAR": 0.00019911926, "MEAN_MOTION_DOT": 4.824e-05, "MEAN_MOTION_DDOT": 0}, "tle": {"line1": "1 58700U 24004A   25353.94095292  .00004824  00000+0  19912-3 0  9990", "line2": "2 58700  97.4621 175.3833 0005943 259.6208 100.4360 15.24495558108443"}}, "geometry": {"type": "Point", "coordinates": [176.1257926746327, -2.175926278869659]}}, {"type": "Feature", "properties": {"norad_id": 58701, "name": "TIANMU-1 16", "group": "weather", "lat": 77.62121336102169, "lon": 138.5884851645272, "alt_km": 487.9010548118222, "timestamp": "2025-12-20T09:36:01.274540+00:00", "meta": {"OBJECT_NAME": "TIANMU-1 16", "OBJECT_ID": "2024-004B", "EPOCH": "2025-12-19T22:13:23.668896", "MEAN_MOTION": 15.24522791, "ECCENTRICITY": 0.00043128, "INCLINATION": 97.456, "RA_OF_ASC_NODE": 174.7512, "ARG_OF_PERICENTER": 263.3689, "MEAN_ANOMALY": 96.7057, "EPHEMERIS_TYPE": 0, "CLASSIFICATION_TYPE": "U", "NORAD_CAT_ID": 58701, "ELEMENT_SET_NO": 999, "REV_AT_EPOCH": 10844, "BSTAR": 0.00020613329, "MEAN_MOTION_DOT": 4.999e-05, "MEAN_MOTION_DDOT": 0}, "tle": {"line1": "1 58701U 24004B   25353.92596839  .00004999  00000+0  20613-3 0  9995", "line2": "2 58701  97.4560 174.7512 0004312 263.3689  96.7057 15.24522791108447"}}, "geometry": {"type": "Point", "coordinates": [138.5884851645272, 77.62121336102169]}}, {"type": "Feature", "properties": {"norad_id": 58702, "name": "TIANMU-1 17", "group": "weather", "lat": 13.983088990079835, "lon": -2.493342007427041, "alt_km": 493.5107162781078, "timestamp": "2025-12-20T09:36:01.274550+00:00", "meta": {"OBJECT_NAME": "TIANMU-1 17", "OBJECT_ID": "2024-004C", "EPOCH": "2025-12-19T23:25:25.743360", "MEAN_MOTION": 15.24567099, "ECCENTRICITY": 0.0003506, "INCLINATION": 97.4594, "RA_OF_ASC_NODE": 175.2148, "ARG_OF_PERICENTER": 265.3264, "MEAN_ANOMALY": 94.7573, "EPHEMERIS_TYPE": 0, "CLASSIFICATION_TYPE": "U", "NORAD_CAT_ID": 58702, "ELEMENT_SET_NO": 999, "REV_AT_EPOCH": 10844, "BSTAR": 0.00019802987, "MEAN_MOTION_DOT": 4.806e-05, "MEAN_MOTION_DDOT": 0}, "tle": {"line1": "1 58702U 24004C   25353.97599240  .00004806  00000+0  19803-3 0  9996", "line2": "2 58702  97.4594 175.2148 0003506 265.3264  94.7573 15.24567099108442"}}, "geometry": {"type": "Point", "coordinates": [-2.493342007427041, 13.983088990079835]}}, {"type": "Feature", "properties": {"norad_id": 58703, "name": "TIANMU-1 18", "group": "weather", "lat": -75.02243144100422, "lon": -33.4979676110109, "alt_km": 497.4967230524935, "timestamp": "2025-12-20T09:36:01.274560+00:00", "meta": {"OBJECT_NAME": "TIANMU-1 18", "OBJECT_ID": "2024-004D", "EPOCH": "2025-12-19T23:01:29.927424", "MEAN_MOTION": 15.24551907, "ECCENTRICITY": 0.0002865, "INCLINATION": 97.4611, "RA_OF_ASC_NODE": 175.395, "ARG_OF_PERICENTER": 263.4614, "MEAN_ANOMALY": 96.6297, "EPHEMERIS_TYPE": 0, "CLASSIFICATION_TYPE": "U", "NORAD_CAT_ID": 58703, "ELEMENT_SET_NO": 999, "REV_AT_EPOCH": 10844, "BSTAR": 0.00018225261, "MEAN_MOTION_DOT": 4.415e-05, "MEAN_MOTION_DDOT": 0}, "tle": {"line1": "1 58703U 24004D   25353.95937416  .00004415  00000+0  18225-3 0  9999", "line2": "2 58703  97.4611 175.3950 0002865 263.4614  96.6297 15.24551907108445"}}, "geometry": {"type": "Point", "coordinates": [-33.4979676110109, -75.02243144100422]}}, {"type": "Feature", "properties": {"norad_id": 58990, "name": "INSAT-3DS", "group": "weather", "lat": -0.040303251621940483, "lon": -44.65657620794047, "alt_km": 35782.61132117124, "timestamp": "2025-12-20T09:36:01.274572+00:00", "meta": {"OBJECT_NAME": "INSAT-3DS", "OBJECT_ID": "2024-033A", "EPOCH": "2025-12-19T20:14:11.978016", "MEAN_MOTION": 1.00272362, "ECCENTRICITY": 0.00010886, "INCLINATION": 0.0523, "RA_OF_ASC_NODE": 106.0423, "ARG_OF_PERICENTER": 165.7027, "MEAN_ANOMALY": 202.594, "EPHEMERIS_TYPE": 0, "CLASSIFICATION_TYPE": "U", "NORAD_CAT_ID": 58990, "ELEMENT_SET_NO": 999, "REV_AT_EPOCH": 4527, "BSTAR": 0, "MEAN_MOTION_DOT": -1.32e-06, "MEAN_MOTION_DDOT": 0}, "tle": {"line1": "1 58990U 24033A   25353.84319419 -.00000132  00000+0  00000+0 0  9995", "line2": "2 58990   0.0523 106.0423 0001088 165.7027 202.5940  1.00272362 45277"}}, "geometry": {"type": "Point", "coordinates": [-44.65657620794047, -0.040303251621940483]}}, {"type": "Feature", "properties": {"norad_id": 59051, "name": "METEOR-M2 4", "group": "weather", "lat": 38.88549404569875, "lon": 138.26382071229403, "alt_km": 818.8689526459248, "timestamp": "2025-12-20T09:36:01.274582+00:00", "meta": {"OBJECT_NAME": "METEOR-M2 4", "OBJECT_ID": "2024-039A", "EPOCH": "2025-12-19T22:48:45.277920", "MEAN_MOTION": 14.22402324, "ECCENTRICITY": 0.00066516, "INCLINATION": 98.6776, "RA_OF_ASC_NODE": 310.7466, "ARG_OF_PERICENTER": 337.3554, "MEAN_ANOMALY": 22.733, "EPHEMERIS_TYPE": 0, "CLASSIFICATION_TYPE": "U", "NORAD_CAT_ID": 59051, "ELEMENT_SET_NO": 999, "REV_AT_EPOCH": 9378, "BSTAR": 2.056769e-05, "MEAN_MOTION_DOT": 2e-08, "MEAN_MOTION_DDOT": 0}, "tle": {"line1": "1 59051U 24039A   25353.95052405  .00000002  00000+0  20568-4 0  9992", "line2": "2 59051  98.6776 310.7466 0006651 337.3554  22.7330 14.22402324 93788"}}, "geometry": {"type": "Point", "coordinates": [138.26382071229403, 38.88549404569875]}}, {"type": "Feature", "properties": {"norad_id": 60133, "name": "GOES 19", "group": "weather", "lat": 0.0006364940816638345, "lon": 158.03930819746444, "alt_km": 35790.31239435995, "timestamp": "2025-12-20T09:36:01.274594+00:00", "meta": {"OBJECT_NAME": "GOES 19", "OBJECT_ID": "2024-119A", "EPOCH": "2025-12-19T10:38:46.804128", "MEAN_MOTION": 1.00271901, "ECCENTRICITY": 0.0001077, "INCLINATION": 0.0077, "RA_OF_ASC_NODE": 262.8367, "ARG_OF_PERICENTER": 52.3942, "MEAN_ANOMALY": 217.5699, "EPHEMERIS_TYPE": 0, "CLASSIFICATION_TYPE": "U", "NORAD_CAT_ID": 60133, "ELEMENT_SET_NO": 999, "REV_AT_EPOCH": 516, "BSTAR": 0, "MEAN_MOTION_DOT": -2.24e-06, "MEAN_MOTION_DDOT": 0}, "tle": {"line1": "1 60133U 24119A   25353.44359727 -.00000224  00000+0  00000+0 0  9996", "line2": "2 60133   0.0077 262.8367 0001077  52.3942 217.5699  1.00271901  5165"}}, "geometry": {"type": "Point", "coordinates": [158.03930819746444, 0.0006364940816638345]}}, {"type": "Feature", "properties": {"norad_id": 65815, "name": "FENGYUN 3H", "group": "weather", "lat": -48.70797462143826, "lon": -56.18340354425356, "alt_km": 832.9571012634633, "timestamp": "2025-12-20T09:36:01.274627+00:00", "meta": {"OBJECT_NAME": "FENGYUN 3H", "OBJECT_ID": "2025-219A", "EPOCH": "2025-12-20T03:04:05.160000", "MEAN_MOTION": 14.19906496, "ECCENTRICITY": 7.31e-05, "INCLINATION": 98.6595, "RA_OF_ASC_NODE": 293.558, "ARG_OF_PERICENTER": 105.0613, "MEAN_ANOMALY": 255.0644, "EPHEMERIS_TYPE": 0, "CLASSIFICATION_TYPE": "U", "NORAD_CAT_ID": 65815, "ELEMENT_SET_NO": 999, "REV_AT_EPOCH": 1197, "BSTAR": 3.733e-05, "MEAN_MOTION_DOT": 3.6e-07, "MEAN_MOTION_DDOT": 0}, "tle": {"line1": "1 65815U 25219A   25354.12783750  .00000036  00000+0  37330-4 0  9994", "line2": "2 65815  98.6595 293.5580 0000731 105.0613 255.0644 14.19906496 11971"}}, "geometry": {"type": "Point", "coordinates": [-56.18340354425356, -48.70797462143826]}}]}